[{"OBJECT_NAME":"STARLINK-34590","OBJECT_ID":"2025-139M","EPOCH":"2026-03-09T12:36:45.895680","MEAN_MOTION":15.30190641,"ECCENTRICITY":0.00012551,"INCLINATION":53.1577,"RA_OF_ASC_NODE":128.1794,"ARG_OF_PERICENTER":77.9254,"MEAN_ANOMALY":282.1887,"EPHEMERIS_TYPE":0,"CLASSIFICATION_TYPE":"U","NORAD_CAT_ID":64675,"ELEMENT_SET_NO":999,"REV_AT_EPOCH":4025,"BSTAR":0.0009494248,"MEAN_MOTION_DOT":0.00027857,"MEAN_MOTION_DDOT":0},{"OBJECT_NAME":"ARIANE 44L+3 DEB[SPELDA]","OBJECT_ID":"1996-030D","EPOCH":"2026-03-09T15:22:45.222816","MEAN_MOTION":3.18110389,"ECCENTRICITY":0.65603168,"INCLINATION":4.0886,"RA_OF_ASC_NODE":337.4942,"ARG_OF_PERICENTER":314.0009,"MEAN_ANOMALY":7.986,"EPHEMERIS_TYPE":0,"CLASSIFICATION_TYPE":"U","NORAD_CAT_ID":23867,"ELEMENT_SET_NO":999,"REV_AT_EPOCH":29570,"BSTAR":0.0030038394,"MEAN_MOTION_DOT":4.08e-5,"MEAN_MOTION_DDOT":0}]
